[{"OBJECT_NAME":"STARLINK-3399","OBJECT_ID":"2022-005T","EPOCH":"2026-03-09T20:51:46.344096","MEAN_MOTION":15.08839443,"ECCENTRICITY":0.00014382,"INCLINATION":53.2172,"RA_OF_ASC_NODE":288.3271,"ARG_OF_PERICENTER":86.3831,"MEAN_ANOMALY":273.7326,"EPHEMERIS_TYPE":0,"CLASSIFICATION_TYPE":"U","NORAD_CAT_ID":51121,"ELEMENT_SET_NO":999,"REV_AT_EPOCH":22890,"BSTAR":3.839666e-6,"MEAN_MOTION_DOT":-2.27e-6,"MEAN_MOTION_DDOT":0},{"OBJECT_NAME":"PACE","OBJECT_ID":"2014-033N","EPOCH":"2026-03-09T22:47:44.809152","MEAN_MOTION":15.09745465,"ECCENTRICITY":0.00061206,"INCLINATION":98.125,"RA_OF_ASC_NODE":67.7953,"ARG_OF_PERICENTER":179.3374,"MEAN_ANOMALY":180.7863,"EPHEMERIS_TYPE":0,"CLASSIFICATION_TYPE":"U","NORAD_CAT_ID":40022,"ELEMENT_SET_NO":999,"REV_AT_EPOCH":63805,"BSTAR":0.00051174262,"MEAN_MOTION_DOT":8.193e-5,"MEAN_MOTION_DDOT":0}]
